$$SOE
2460154.500000000, A.D. 2023-Jul-29 00:00:00.0000, -3.519644065251836E+08, 2.063401007490242E+08, 7.584531008573861E+07,
2460161.500000000, A.D. 2023-Aug-05 00:00:00.0000, -3.575683211528912E+08, 1.991599306075545E+08, 7.259596118992513E+07,
2460168.500000000, A.D. 2023-Aug-12 00:00:00.0000, -3.629306143739552E+08, 1.918451334278004E+08, 6.929754469402441E+07,
2460175.500000000, A.D. 2023-Aug-19 00:00:00.0000, -3.680487997358847E+08, 1.844012516836900E+08, 6.595250713980478E+07,
2460182.500000000, A.D. 2023-Aug-26 00:00:00.0000, -3.729204781647090E+08, 1.768338133228945E+08, 6.256328602417716E+07,
2460189.500000000, A.D. 2023-Sep-02 00:00:00.0000, -3.775433344868896E+08, 1.691483343622231E+08, 5.913231101688940E+07,
2460196.500000000, A.D. 2023-Sep-09 00:00:00.0000, -3.819151342083394E+08, 1.613503214585494E+08, 5.566200519494454E+07,
2460203.500000000, A.D. 2023-Sep-16 00:00:00.0000, -3.860337203751262E+08, 1.534452743922766E+08, 5.215478627174437E+07,
2460210.500000000, A.D. 2023-Sep-23 00:00:00.0000, -3.898970100929564E+08, 1.454386887457367E+08, 4.861306780465402E+07,
2460217.500000000, A.D. 2023-Sep-30 00:00:00.0000, -3.935029910393187E+08, 1.373360599630304E+08, 4.503926050816541E+07,
2460224.500000000, A.D. 2023-Oct-07 00:00:00.0000, -3.968497203187808E+08, 1.291428882448939E+08, 4.143577384334139E+07,
2460231.500000000, A.D. 2023-Oct-14 00:00:00.0000, -3.999353246199886E+08, 1.208646809643838E+08, 3.780501751691605E+07,
2460238.500000000, A.D. 2023-Oct-21 00:00:00.0000, -4.027579984406671E+08, 1.125069542056786E+08, 3.414940272415460E+07,
2460245.500000000, A.D. 2023-Oct-28 00:00:00.0000, -4.053160017996602E+08, 1.040752356824372E+08, 3.047134345008576E+07,
2460252.500000000, A.D. 2023-Nov-04 00:00:00.0000, -4.076076586861191E+08, 9.557506826213223E+07, 2.677325788066036E+07,
2460259.500000000, A.D. 2023-Nov-11 00:00:00.0000, -4.096313560698630E+08, 8.701201349603671E+07, 2.305756985857970E+07,
2460266.500000000, A.D. 2023-Nov-18 00:00:00.0000, -4.113855432541119E+08, 7.839165509047903E+07, 1.932671035833957E+07,
2460273.500000000, A.D. 2023-Nov-25 00:00:00.0000, -4.128687314989332E+08, 6.971960234136108E+07, 1.558311897552151E+07,
2460280.500000000, A.D. 2023-Dec-02 00:00:00.0000, -4.140794938896734E+08, 6.100149352024710E+07, 1.182924542664034E+07,
2460287.500000000, A.D. 2023-Dec-09 00:00:00.0000, -4.150164653761075E+08, 5.224299915321585E+07, 8.067551047276437E+06,
2460294.500000000, A.D. 2023-Dec-16 00:00:00.0000, -4.156783426986434E+08, 4.344982520594782E+07, 4.300510262661144E+06,
2460301.500000000, A.D. 2023-Dec-23 00:00:00.0000, -4.160638838561900E+08, 3.462771686381474E+07, 5.306120543616898E+05,
2460308.500000000, A.D. 2023-Dec-30 00:00:00.0000, -4.161719084579878E+08, 2.578246395649809E+07, -3.239638368742029E+06,
2460315.500000000, A.D. 2024-Jan-06 00:00:00.0000, -4.160013007357724E+08, 1.691990566454576E+07, -7.007717725905197E+06,
2460322.500000000, A.D. 2024-Jan-13 00:00:00.0000, -4.155510120507304E+08, 8.045932698690983E+06, -1.077108308536544E+07,
2460329.500000000, A.D. 2024-Jan-20 00:00:00.0000, -4.148200616792083E+08, -8.335099657295439E+05, -1.452717041093640E+07,
2460336.500000000, A.D. 2024-Jan-27 00:00:00.0000, -4.138075379157988E+08, -9.712419150862489E+06, -1.827339299560850E+07,
2460343.500000000, A.D. 2024-Feb-03 00:00:00.0000, -4.125125999370772E+08, -1.858472928650058E+07, -2.200713982198252E+07,
2460350.500000000, A.D. 2024-Feb-10 00:00:00.0000, -4.109344801645730E+08, -2.744430825990579E+07, -2.572577390088686E+07,
2460357.500000000, A.D. 2024-Feb-17 00:00:00.0000, -4.090724870024624E+08, -3.628495329759380E+07, -2.942663060239467E+07,
2460364.500000000, A.D. 2024-Feb-24 00:00:00.0000, -4.069260079276374E+08, -4.510038686610361E+07, -3.310701598351733E+07,
2460371.500000000, A.D. 2024-Mar-02 00:00:00.0000, -4.044945129174358E+08, -5.388425262767725E+07, -3.676420512035497E+07,
2460378.500000000, A.D. 2024-Mar-09 00:00:00.0000, -4.017775580924962E+08, -6.263011151813541E+07, -4.039544046539424E+07,
2460385.500000000, A.D. 2024-Mar-16 00:00:00.0000, -3.987747891970857E+08, -7.133143775474381E+07, -4.399793025330209E+07,
2460392.500000000, A.D. 2024-Mar-23 00:00:00.0000, -3.954859450388328E+08, -7.998161367080025E+07, -4.756884685858186E+07,
2460399.500000000, A.D. 2024-Mar-30 00:00:00.0000, -3.919108631481996E+08, -8.857392341126135E+07, -5.110532490557571E+07,
2460406.500000000, A.D. 2024-Apr-06 00:00:00.0000, -3.880494874238397E+08, -9.710154886685798E+07, -5.460445943425590E+07,
2460413.500000000, A.D. 2024-Apr-13 00:00:00.0000, -3.839018742371881E+08, -1.055575670205864E+08, -5.806330438448953E+07,
2460420.500000000, A.D. 2024-Apr-20 00:00:00.0000, -3.794681979714429E+08, -1.139349460413444E+08, -6.147887109770025E+07,
2460427.500000000, A.D. 2024-Apr-27 00:00:00.0000, -3.747487575356013E+08, -1.222265407020819E+08, -6.484812674833039E+07,
2460434.500000000, A.D. 2024-May-04 00:00:00.0000, -3.697439837941259E+08, -1.304250878460683E+08, -6.816799277855951E+07,
2460441.500000000, A.D. 2024-May-11 00:00:00.0000, -3.644544477068275E+08, -1.385232020246664E+08, -7.143534337655431E+07,
2460448.500000000, A.D. 2024-May-18 00:00:00.0000, -3.588808691314902E+08, -1.465133713073672E+08, -7.464700401544631E+07,
2460455.500000000, A.D. 2024-May-25 00:00:00.0000, -3.530241262993067E+08, -1.543879532957369E+08, -7.779975006840292E+07,
2460462.500000000, A.D. 2024-Jun-01 00:00:00.0000, -3.468852659385011E+08, -1.621391714266431E+08, -8.089030552374220E+07,
2460469.500000000, A.D. 2024-Jun-08 00:00:00.0000, -3.404655138357674E+08, -1.697591116197192E+08, -8.391534183981007E+07,
2460476.500000000, A.D. 2024-Jun-15 00:00:00.0000, -3.337662854727075E+08, -1.772397187604108E+08, -8.687147694857672E+07,
2460483.500000000, A.D. 2024-Jun-22 00:00:00.0000, -3.267891977793445E+08, -1.845727918848497E+08, -8.975527423826323E+07,
2460490.500000000, A.D. 2024-Jun-29 00:00:00.0000, -3.195360841636527E+08, -1.917499799353573E+08, -9.256324149018031E+07,
2460497.500000000, A.D. 2024-Jul-06 00:00:00.0000, -3.120090102120809E+08, -1.987627806131286E+08, -9.529183023906958E+07,
2460504.500000000, A.D. 2024-Jul-13 00:00:00.0000, -3.042102881533285E+08, -2.056025395646133E+08, -9.793743553275028E+07,
2460511.500000000, A.D. 2024-Jul-20 00:00:00.0000, -2.961424921101422E+08, -2.122604488186494E+08, -1.004963958446038E+08,
2460518.500000000, A.D. 2024-Jul-27 00:00:00.0000, -2.878084748313558E+08, -2.187275455079736E+08, -1.029649931893322E+08,
2460525.500000000, A.D. 2024-Aug-03 00:00:00.0000, -2.792113856661029E+08, -2.249947113347446E+08, -1.053394535343168E+08,
2460532.500000000, A.D. 2024-Aug-10 00:00:00.0000, -2.703546896486828E+08, -2.310526728793710E+08, -1.076159475641095E+08,
2460539.500000000, A.D. 2024-Aug-17 00:00:00.0000, -2.612421876790266E+08, -2.368920028348965E+08, -1.097905918473762E+08,
2460546.500000000, A.D. 2024-Aug-24 00:00:00.0000, -2.518780377990033E+08, -2.425031223025492E+08, -1.118594504616624E+08,
2460553.500000000, A.D. 2024-Aug-31 00:00:00.0000, -2.422667774710274E+08, -2.478763043334721E+08, -1.138185371466057E+08,
2460560.500000000, A.D. 2024-Sep-07 00:00:00.0000, -2.324133465076396E+08, -2.530016787245819E+08, -1.156638180673549E+08,
2460567.500000000, A.D. 2024-Sep-14 00:00:00.0000, -2.223231105700991E+08, -2.578692372187669E+08, -1.173912151761127E+08,
2460574.500000000, A.D. 2024-Sep-21 00:00:00.0000, -2.120018872536116E+08, -2.624688388570455E+08, -1.189966100169044E+08,
2460581.500000000, A.D. 2024-Sep-28 00:00:00.0000, -2.014559752197920E+08, -2.667902188888140E+08, -1.204758482643122E+08,
2460588.500000000, A.D. 2024-Oct-05 00:00:00.0000, -1.906921826665314E+08, -2.708230014364232E+08, -1.218247454147312E+08,
2460595.500000000, A.D. 2024-Oct-12 00:00:00.0000, -1.797178554411591E+08, -2.745567131460882E+08, -1.230390934441704E+08,
2460602.500000000, A.D. 2024-Oct-19 00:00:00.0000, -1.685409064722355E+08, -2.779807983186735E+08, -1.241146683893921E+08,
2460609.500000000, A.D. 2024-Oct-26 00:00:00.0000, -1.571698464497624E+08, -2.810846365554051E+08, -1.250472390128021E+08,
2460616.500000000, A.D. 2024-Nov-02 00:00:00.0000, -1.456138153612693E+08, -2.838575633127367E+08, -1.258325766871492E+08,
2460623.500000000, A.D. 2024-Nov-09 00:00:00.0000, -1.338826146153111E+08, -2.862888936043590E+08, -1.264664666110790E+08,
2460630.500000000, A.D. 2024-Nov-16 00:00:00.0000, -1.219867395150406E+08, -2.883679491198318E+08, -1.269447204655094E+08,
2460637.500000000, A.D. 2024-Nov-23 00:00:00.0000, -1.099374117796572E+08, -2.900840890865632E+08, -1.272631906285968E+08,
2460644.500000000, A.D. 2024-Nov-30 00:00:00.0000, -9.774661160041617E+07, -2.914267451974580E+08, -1.274177860805638E+08,
2460651.500000000, A.D. 2024-Dec-07 00:00:00.0000, -8.542710845125404E+07, -2.923854604616387E+08, -1.274044901083009E+08,
2460658.500000000, A.D. 2024-Dec-14 00:00:00.0000, -7.299249092145240E+07, -2.929499310243163E+08, -1.272193797465957E+08,
2460665.500000000, A.D. 2024-Dec-21 00:00:00.0000, -6.045719740096328E+07, -2.931100524505498E+08, -1.268586469351316E+08,
2460672.500000000, A.D. 2024-Dec-28 00:00:00.0000, -4.783654508608299E+07, -2.928559736716577E+08, -1.263186218933261E+08,
2460679.500000000, A.D. 2025-Jan-04 00:00:00.0000, -3.514675407539286E+07, -2.921781564187649E+08, -1.255957988212357E+08,
2460686.500000000, A.D. 2025-Jan-11 00:00:00.0000, -2.240496766949416E+07, -2.910674386385016E+08, -1.246868636660482E+08,
2460693.500000000, A.D. 2025-Jan-18 00:00:00.0000, -9.629269006124254E+06, -2.895151029036434E+08, -1.235887239582756E+08,
2460700.500000000, A.D. 2025-Jan-25 00:00:00.0000, 3.161307074631605E+06, -2.875129503119779E+08, -1.222985407569033E+08,
2460707.500000000, A.D. 2025-Feb-01 00:00:00.0000, 1.594676805855604E+07, -2.850533798298977E+08, -1.208137626590720E+08,
2460714.500000000, A.D. 2025-Feb-08 00:00:00.0000, 2.870616473751539E+07, -2.821294728762683E+08, -1.191321617636323E+08,
$$EOE